[{"OBJECT_NAME":"TIANMU-1 09","OBJECT_ID":"2023-101C","EPOCH":"2026-03-09T22:17:34.703232","MEAN_MOTION":15.29080822,"ECCENTRICITY":0.00049013,"INCLINATION":97.267,"RA_OF_ASC_NODE":121.1263,"ARG_OF_PERICENTER":139.4293,"MEAN_ANOMALY":220.7314,"EPHEMERIS_TYPE":0,"CLASSIFICATION_TYPE":"U","NORAD_CAT_ID":57401,"ELEMENT_SET_NO":999,"REV_AT_EPOCH":14647,"BSTAR":0.00030540035,"MEAN_MOTION_DOT":8.553e-5,"MEAN_MOTION_DDOT":0},{"OBJECT_NAME":"STARLINK-31866","OBJECT_ID":"2024-084Q","EPOCH":"2026-03-09T22:03:58.531680","MEAN_MOTION":15.27567508,"ECCENTRICITY":0.00010335,"INCLINATION":42.9986,"RA_OF_ASC_NODE":33.0943,"ARG_OF_PERICENTER":225.7719,"MEAN_ANOMALY":134.3047,"EPHEMERIS_TYPE":0,"CLASSIFICATION_TYPE":"U","NORAD_CAT_ID":59668,"ELEMENT_SET_NO":999,"REV_AT_EPOCH":10449,"BSTAR":4.3681295e-5,"MEAN_MOTION_DOT":9.4e-6,"MEAN_MOTION_DDOT":0}]
